CCSDS_OMM_VERS = 2.0
CREATION_DATE  = 
ORIGINATOR     = 

OBJECT_NAME    = SL-3 R/B
OBJECT_ID      = 1982-079B
CENTER_NAME    = EARTH
REF_FRAME      = TEME
TIME_SYSTEM    = UTC
MEAN_ELEMENT_THEORY = SGP/SGP4

EPOCH          = 2025-11-06T17:59:47.098752
MEAN_MOTION    = 15.23021190
ECCENTRICITY   = .0024934
INCLINATION    = 81.1469
RA_OF_ASC_NODE = 338.0722
ARG_OF_PERICENTER = 218.8499
MEAN_ANOMALY   = 141.0942

EPHEMERIS_TYPE = 0
CLASSIFICATION_TYPE = U
NORAD_CAT_ID   = 13403
ELEMENT_SET_NO = 999
REV_AT_EPOCH   = 35897
BSTAR          = .32105E-3
MEAN_MOTION_DOT = .7644E-4
MEAN_MOTION_DDOT = 0

CCSDS_OMM_VERS = 2.0
CREATION_DATE  = 
ORIGINATOR     = 

OBJECT_NAME    = SL-14 R/B
OBJECT_ID      = 1982-092B
CENTER_NAME    = EARTH
REF_FRAME      = TEME
TIME_SYSTEM    = UTC
MEAN_ELEMENT_THEORY = SGP/SGP4

EPOCH          = 2025-11-06T19:05:03.208992
MEAN_MOTION    = 14.86491579
ECCENTRICITY   = .0020257
INCLINATION    = 82.5671
RA_OF_ASC_NODE = 256.3255
ARG_OF_PERICENTER = 353.7830
MEAN_ANOMALY   = 26.0266

EPHEMERIS_TYPE = 0
CLASSIFICATION_TYPE = U
NORAD_CAT_ID   = 13553
ELEMENT_SET_NO = 999
REV_AT_EPOCH   = 31067
BSTAR          = .10763E-3
MEAN_MOTION_DOT = .979E-5
MEAN_MOTION_DDOT = 0

CCSDS_OMM_VERS = 2.0
CREATION_DATE  = 
ORIGINATOR     = 

OBJECT_NAME    = SL-3 R/B
OBJECT_ID      = 1983-010B
CENTER_NAME    = EARTH
REF_FRAME      = TEME
TIME_SYSTEM    = UTC
MEAN_ELEMENT_THEORY = SGP/SGP4

EPOCH          = 2025-11-06T12:23:35.865312
MEAN_MOTION    = 15.42134524
ECCENTRICITY   = .0018343
INCLINATION    = 81.1021
RA_OF_ASC_NODE = 152.7901
ARG_OF_PERICENTER = 113.7313
MEAN_ANOMALY   = 246.5856

EPHEMERIS_TYPE = 0
CLASSIFICATION_TYPE = U
NORAD_CAT_ID   = 13819
ELEMENT_SET_NO = 999
REV_AT_EPOCH   = 33893
BSTAR          = .3973E-3
MEAN_MOTION_DOT = .17155E-3
MEAN_MOTION_DDOT = 0

CCSDS_OMM_VERS = 2.0
CREATION_DATE  = 
ORIGINATOR     = 

OBJECT_NAME    = SL-3 R/B
OBJECT_ID      = 1983-075B
CENTER_NAME    = EARTH
REF_FRAME      = TEME
TIME_SYSTEM    = UTC
MEAN_ELEMENT_THEORY = SGP/SGP4

EPOCH          = 2025-11-06T18:03:38.060640
MEAN_MOTION    = 15.35071861
ECCENTRICITY   = .0021731
INCLINATION    = 97.6098
RA_OF_ASC_NODE = 306.0563
ARG_OF_PERICENTER = 312.8072
MEAN_ANOMALY   = 47.1343

EPHEMERIS_TYPE = 0
CLASSIFICATION_TYPE = U
NORAD_CAT_ID   = 14208
ELEMENT_SET_NO = 999
REV_AT_EPOCH   = 31127
BSTAR          = .44649E-3
MEAN_MOTION_DOT = .15238E-3
MEAN_MOTION_DDOT = 0

CCSDS_OMM_VERS = 2.0
CREATION_DATE  = 
ORIGINATOR     = 

OBJECT_NAME    = COSMOS 1536
OBJECT_ID      = 1984-013A
CENTER_NAME    = EARTH
REF_FRAME      = TEME
TIME_SYSTEM    = UTC
MEAN_ELEMENT_THEORY = SGP/SGP4

EPOCH          = 2025-11-06T18:48:02.818080
MEAN_MOTION    = 15.21870713
ECCENTRICITY   = .0015383
INCLINATION    = 82.5477
RA_OF_ASC_NODE = 229.8006
ARG_OF_PERICENTER = 3.0577
MEAN_ANOMALY   = 357.0750

EPHEMERIS_TYPE = 0
CLASSIFICATION_TYPE = U
NORAD_CAT_ID   = 14699
ELEMENT_SET_NO = 999
REV_AT_EPOCH   = 25391
BSTAR          = .56722E-3
MEAN_MOTION_DOT = .12979E-3
MEAN_MOTION_DDOT = 0

CCSDS_OMM_VERS = 2.0
CREATION_DATE  = 
ORIGINATOR     = 

OBJECT_NAME    = SL-14 R/B
OBJECT_ID      = 1984-027B
CENTER_NAME    = EARTH
REF_FRAME      = TEME
TIME_SYSTEM    = UTC
MEAN_ELEMENT_THEORY = SGP/SGP4

EPOCH          = 2025-11-06T14:15:38.607840
MEAN_MOTION    = 14.85818366
ECCENTRICITY   = .0018621
INCLINATION    = 82.5435
RA_OF_ASC_NODE = 0.4524
ARG_OF_PERICENTER = 25.8375
MEAN_ANOMALY   = 334.3767

EPHEMERIS_TYPE = 0
CLASSIFICATION_TYPE = U
NORAD_CAT_ID   = 14820
ELEMENT_SET_NO = 999
REV_AT_EPOCH   = 22935
BSTAR          = .77096E-4
MEAN_MOTION_DOT = .697E-5
MEAN_MOTION_DDOT = 0

CCSDS_OMM_VERS = 2.0
CREATION_DATE  = 
ORIGINATOR     = 

OBJECT_NAME    = SL-8 R/B
OBJECT_ID      = 1985-006B
CENTER_NAME    = EARTH
REF_FRAME      = TEME
TIME_SYSTEM    = UTC
MEAN_ELEMENT_THEORY = SGP/SGP4

EPOCH          = 2025-11-06T11:58:25.195008
MEAN_MOTION    = 14.37687157
ECCENTRICITY   = .0017499
INCLINATION    = 74.0429
RA_OF_ASC_NODE = 127.8100
ARG_OF_PERICENTER = 72.0882
MEAN_ANOMALY   = 351.5245

EPHEMERIS_TYPE = 0
CLASSIFICATION_TYPE = U
NORAD_CAT_ID   = 15483
ELEMENT_SET_NO = 999
REV_AT_EPOCH   = 13632
BSTAR          = .11623E-3
MEAN_MOTION_DOT = .324E-5
MEAN_MOTION_DDOT = 0

CCSDS_OMM_VERS = 2.0
CREATION_DATE  = 
ORIGINATOR     = 

OBJECT_NAME    = SL-12 R/B(2)
OBJECT_ID      = 1985-042D
CENTER_NAME    = EARTH
REF_FRAME      = TEME
TIME_SYSTEM    = UTC
MEAN_ELEMENT_THEORY = SGP/SGP4

EPOCH          = 2025-11-06T12:49:15.084768
MEAN_MOTION    = 14.21934299
ECCENTRICITY   = .0037026
INCLINATION    = 71.1092
RA_OF_ASC_NODE = 347.9102
ARG_OF_PERICENTER = 314.6365
MEAN_ANOMALY   = 195.1779

EPHEMERIS_TYPE = 0
CLASSIFICATION_TYPE = U
NORAD_CAT_ID   = 15772
ELEMENT_SET_NO = 999
REV_AT_EPOCH   = 9688
BSTAR          = .12551E-3
MEAN_MOTION_DOT = .231E-5
MEAN_MOTION_DDOT = 0

CCSDS_OMM_VERS = 2.0
CREATION_DATE  = 
ORIGINATOR     = 

OBJECT_NAME    = SL-14 R/B
OBJECT_ID      = 1985-069B
CENTER_NAME    = EARTH
REF_FRAME      = TEME
TIME_SYSTEM    = UTC
MEAN_ELEMENT_THEORY = SGP/SGP4

EPOCH          = 2025-11-06T11:33:23.303808
MEAN_MOTION    = 14.86258987
ECCENTRICITY   = .0017508
INCLINATION    = 82.5249
RA_OF_ASC_NODE = 140.7916
ARG_OF_PERICENTER = 238.3141
MEAN_ANOMALY   = 121.6369

EPHEMERIS_TYPE = 0
CLASSIFICATION_TYPE = U
NORAD_CAT_ID   = 15945
ELEMENT_SET_NO = 999
REV_AT_EPOCH   = 15453
BSTAR          = .77944E-4
MEAN_MOTION_DOT = .711E-5
MEAN_MOTION_DDOT = 0

CCSDS_OMM_VERS = 2.0
CREATION_DATE  = 
ORIGINATOR     = 

OBJECT_NAME    = SL-16 R/B
OBJECT_ID      = 1985-097B
CENTER_NAME    = EARTH
REF_FRAME      = TEME
TIME_SYSTEM    = UTC
MEAN_ELEMENT_THEORY = SGP/SGP4

EPOCH          = 2025-11-06T17:08:15.126144
MEAN_MOTION    = 14.16576542
ECCENTRICITY   = .0005086
INCLINATION    = 71.0047
RA_OF_ASC_NODE = 39.4454
ARG_OF_PERICENTER = 80.0749
MEAN_ANOMALY   = 73.5096

EPHEMERIS_TYPE = 0
CLASSIFICATION_TYPE = U
NORAD_CAT_ID   = 16182
ELEMENT_SET_NO = 999
REV_AT_EPOCH   = 6981
BSTAR          = -.57548E-4
MEAN_MOTION_DOT = -.163E-5
MEAN_MOTION_DDOT = 0

CCSDS_OMM_VERS = 2.0
CREATION_DATE  = 
ORIGINATOR     = 

OBJECT_NAME    = SL-14 R/B
OBJECT_ID      = 1986-006B
CENTER_NAME    = EARTH
REF_FRAME      = TEME
TIME_SYSTEM    = UTC
MEAN_ELEMENT_THEORY = SGP/SGP4

EPOCH          = 2025-11-06T14:57:04.671072
MEAN_MOTION    = 14.86596304
ECCENTRICITY   = .0075827
INCLINATION    = 82.5297
RA_OF_ASC_NODE = 15.5304
ARG_OF_PERICENTER = 321.5704
MEAN_ANOMALY   = 38.0125

EPHEMERIS_TYPE = 0
CLASSIFICATION_TYPE = U
NORAD_CAT_ID   = 16496
ELEMENT_SET_NO = 999
REV_AT_EPOCH   = 13092
BSTAR          = .98574E-4
MEAN_MOTION_DOT = .946E-5
MEAN_MOTION_DDOT = 0

